{
    "links": {
        "self": "http://www.neowsapp.com/rest/v1/neo/3759717?api_key=iIulBulltgU6a56xZRHN4H3l9WmuAYTsLGpBGhQ2"
    },
    "id": "3759717",
    "neo_reference_id": "3759717",
    "name": "(2016 SH1)",
    "designation": "2016 SH1",
    "nasa_jpl_url": "http://ssd.jpl.nasa.gov/sbdb.cgi?sstr=3759717",
    "absolute_magnitude_h": 22.7,
    "estimated_diameter": {
        "kilometers": {
            "estimated_diameter_min": 0.0766575574,
            "estimated_diameter_max": 0.1714115092
        },
        "meters": {
            "estimated_diameter_min": 76.6575573531,
            "estimated_diameter_max": 171.4115092306
        },
        "miles": {
            "estimated_diameter_min": 0.0476327831,
            "estimated_diameter_max": 0.1065101409
        },
        "feet": {
            "estimated_diameter_min": 251.5011804664,
            "estimated_diameter_max": 562.3737359442
        }
    },
    "is_potentially_hazardous_asteroid": false,
    "close_approach_data": [
        {
            "close_approach_date": "2013-09-13",
            "close_approach_date_full": "2013-Sep-13 19:18",
            "epoch_date_close_approach": 1379099880000,
            "relative_velocity": {
                "kilometers_per_second": "12.7479255308",
                "kilometers_per_hour": "45892.5319110557",
                "miles_per_hour": "28515.8346199557"
            },
            "miss_distance": {
                "astronomical": "0.4489248212",
                "lunar": "174.6317554468",
                "kilometers": "67158197.041650844",
                "miles": "41730168.5880518872"
            },
            "orbiting_body": "Earth"
        },
        {
            "close_approach_date": "2016-09-20",
            "close_approach_date_full": "2016-Sep-20 16:16",
            "epoch_date_close_approach": 1474388160000,
            "relative_velocity": {
                "kilometers_per_second": "11.4208512241",
                "kilometers_per_hour": "41115.0644067352",
                "miles_per_hour": "25547.3021031739"
            },
            "miss_distance": {
                "astronomical": "0.0914665618",
                "lunar": "35.5804925402",
                "kilometers": "13683202.821503366",
                "miles": "8502347.9741678108"
            },
            "orbiting_body": "Earth"
        },
        {
            "close_approach_date": "2019-09-10",
            "close_approach_date_full": "2019-Sep-10 07:18",
            "epoch_date_close_approach": 1568099880000,
            "relative_velocity": {
                "kilometers_per_second": "19.0958548449",
                "kilometers_per_hour": "68745.077441798",
                "miles_per_hour": "42715.517702655"
            },
            "miss_distance": {
                "astronomical": "0.4963185397",
                "lunar": "193.0679119433",
                "kilometers": "74248196.380630439",
                "miles": "46135689.8905564982"
            },
            "orbiting_body": "Earth"
        }
    ],
    "orbital_data": {
        "orbit_id": "4",
        "orbit_determination_date": "2017-04-06 08:23:42",
        "first_observation_date": "2016-09-22",
        "last_observation_date": "2016-10-10",
        "data_arc_in_days": 18,
        "observations_used": 94,
        "orbit_uncertainty": "8",
        "minimum_orbit_intersection": ".0895925",
        "jupiter_tisserand_invariant": "4.952",
        "epoch_osculation": "2457656.5",
        "eccentricity": ".1791025375345228",
        "semi_major_axis": "1.288193631444759",
        "inclination": "21.13391218228964",
        "ascending_node_longitude": "355.2807657688136",
        "orbital_period": "534.0355255924703",
        "perihelion_distance": "1.057474883217191",
        "perihelion_argument": "40.30788986193633",
        "aphelion_distance": "1.518912379672327",
        "perihelion_time": "2457689.921257338305",
        "mean_anomaly": "337.4703141173209",
        "mean_motion": ".6741124564711465",
        "equinox": "J2000",
        "orbit_class": {
            "orbit_class_type": "AMO",
            "orbit_class_description": "Near-Earth asteroid orbits similar to that of 1221 Amor",
            "orbit_class_range": "1.017 AU < q (perihelion) < 1.3 AU"
        }
    },
    "is_sentry_object": false
}